ONEWEB-0555             
1 56057U 23043M   24343.51749465  .00000244  00000+0  60427-3 0  9993
2 56057  87.9078 339.4790 0002320 103.0245 257.1145 13.16592684 85846
ONEWEB-0557             
1 56058U 23043N   24343.53175735  .00000200  00000+0  48876-3 0  9995
2 56058  87.9078 339.5008 0002749  96.3901 263.7543 13.16594090 85846
ONEWEB-0558             
1 56059U 23043P   24343.52821985  .00000074  00000+0  14664-3 0  9997
2 56059  87.9296 354.6823 0001260  86.3855 273.7423 13.21826732 84839
ONEWEB-0559             
1 56060U 23043Q   24343.51717439  .00000025  00000+0  27958-4 0  9993
2 56060  87.9293 354.6796 0001715  75.2478 284.8846 13.21826787 84843
ONEWEB-0566             
1 56061U 23043R   24343.51086715  .00000021  00000+0  19430-4 0  9992
2 56061  87.9294 354.6808 0001278  78.7419 281.3859 13.21826521 84826
ONEWEB-0568             
1 56062U 23043S   24343.54915949  .00000037  00000+0  62312-4 0  9990
2 56062  87.9080 339.4622 0001905  95.5308 264.6040 13.16592971 85860
ONEWEB-0574             
1 56063U 23043T   24343.50454040  .00000019  00000+0  14962-4 0  9995
2 56063  87.9292 354.6736 0001724  95.9003 264.2327 13.21826544 84861
ONEWEB-0575             
1 56064U 23043U   24343.54284104  .00000067  00000+0  14210-3 0  9990
2 56064  87.9081 339.4746 0002302  89.1422 270.9972 13.16594498 85857
ONEWEB-0576             
1 56065U 23043V   24343.52381239 -.00002352  00000+0 -61872-2 0  9992
2 56065  87.9077 339.4720 0001534 126.4552 233.6720 13.16605166 85841
ONEWEB-0577             
1 56066U 23043W   24343.53017451  .00000249  00000+0  61859-3 0  9993
2 56066  87.9079 339.4707 0002505  86.4984 273.6433 13.16594321 85870
ONEWEB-0578             
1 56067U 23043X   24343.49193241 -.00000009  00000+0 -53403-4 0  9994
2 56067  87.9296 354.6803 0001858  94.4021 265.7325 13.21829360 84825
ONEWEB-0579             
1 56068U 23043Y   24343.55817542  .00000062  00000+0  11835-3 0  9998
2 56068  87.9291 354.6592 0001719  78.4889 281.6438 13.21826214 84845
ONEWEB-0581             
1 56069U 23043Z   24343.53650705  .00000085  00000+0  18931-3 0  9992
2 56069  87.9079 339.4996 0002211  79.0904 281.0475 13.16594937 85846
ONEWEB-0609             
1 56070U 23043AA  24343.50891998  .00000002  00000+0 -28220-4 0  9995
2 56070  87.9072   9.8457 0001683  95.4309 264.7013 13.15548457 83371
ONEWEB-0613             
1 56071U 23043AB  24343.50417226 -.00000033  00000+0 -12040-3 0  9991
2 56071  87.9077   9.8496 0001573  85.2379 274.8931 13.15550495 83378
ONEWEB-0630             
1 56072U 23043AC  24343.49942013 -.00000067  00000+0 -21232-3 0  9997
2 56072  87.9074   9.8351 0001515  87.1203 273.0101 13.15548564 83362
ONEWEB-0632             
1 56073U 23043AD  24343.49466930 -.00000072  00000+0 -22567-3 0  9995
2 56073  87.9075   9.8552 0002000  87.1114 273.0246 13.15549001 83365
ONEWEB-0633             
1 56074U 23043AE  24343.48830483 -.00000320  00000+0 -88484-3 0  9999
2 56074  87.9071   9.8316 0001300  89.8287 270.2992 13.15547853 83340
ONEWEB-0634             
1 56075U 23043AF  24343.55012196 -.00000003  00000+0 -42703-4 0  9994
2 56075  87.9079   9.8420 0001577 104.3905 255.7401 13.15547688 83340
ONEWEB-0635             
1 56076U 23043AG  24343.54537451  .00000092  00000+0  21141-3 0  9998
2 56076  87.9051   9.8809 0002063  85.9091 274.2275 13.15549314 83379
ONEWEB-0636             
1 56077U 23043AH  24343.53745067  .00000115  00000+0  27138-3 0  9990
2 56077  87.9077   9.8652 0002036  87.4962 272.6401 13.15549195 83356
ONEWEB-0637             
1 56078U 23043AJ  24343.53109654  .00000196  00000+0  48639-3 0  9995
2 56078  87.9077   9.8456 0002110  89.0167 271.1205 13.15547470 83379
ONEWEB-0647             
1 56079U 23043AK  24343.52635906  .00000151  00000+0  36823-3 0  9992
2 56079  87.9072   9.8608 0001810  86.5475 273.5862 13.15547619 83363
ONEWEB-0651             
1 56080U 23043AL  24343.52160270  .00000187  00000+0  46297-3 0  9996
2 56080  87.9077   9.8438 0002132  92.2428 267.8946 13.15548461 84569
ONEWEB-0718             
1 56081U 23043AM  24343.51682432 -.00000280  00000+0 -77705-3 0  9999
2 56081  87.9076   9.8296 0001656 110.9842 249.1466 13.15547939 83376
ONEWEB-0561             
1 56710U 23068A   24343.52172799  .00000094  00000+0  19964-3 0  9990
2 56710  87.9255  25.0374 0002242  83.6307 276.5082 13.20772854 76153
ONEWEB-0668             
1 56711U 23068B   24343.53887000  .00000142  00000+0  33657-3 0  9999
2 56711  87.9072 339.4670 0001821 109.3451 250.7877 13.16596124 78663
ONEWEB-0676             
1 56712U 23068C   24343.51906921  .00000154  00000+0  36982-3 0  9999
2 56712  87.9075 339.4894 0002172  78.0307 282.1067 13.16593869 78581
ONEWEB-0677             
1 56713U 23068D   24343.51067358 -.00000019  00000+0 -79828-4 0  9991
2 56713  87.9253  25.0099 0002155  97.1144 263.0234 13.20773379 76456
ONEWEB-0678             
1 56714U 23068E   24343.48515698 -.00000065  00000+0 -20741-3 0  9993
2 56714  87.9080   9.8035 0001598  83.3794 276.7518 13.15549046 76220
ONEWEB-0679             
1 56715U 23068F   24343.56421252 -.00000012  00000+0 -63845-4 0  9990
2 56715  87.9076 339.4782 0002363  97.4857 262.6543 13.16593749 78611
ONEWEB-0680             
1 56716U 23068G   24343.56132239  .00000032  00000+0  45856-4 0  9997
2 56716  87.9272 354.7006 0002043 112.9155 247.2195 13.21827775 77692
ONEWEB-0681             
1 56717U 23068H   24343.49589011 -.00000009  00000+0 -52716-4 0  9993
2 56717  87.9293 354.7015 0002823  83.4724 276.6731 13.21823532 77673
ONEWEB-0682             
1 56718U 23068J   24343.51129721  .00000000  00000+0 -34141-4 0  9997
2 56718  87.9074   9.8350 0002070 109.2882 250.8472 13.15549568 76398
ONEWEB-0683             
1 56719U 23068K   24343.53269472  .00000223  00000+0  55898-3 0  9995
2 56719  87.9074   9.8026 0001863 103.1979 256.9360 13.15549257 76363
ONEWEB-0684             
1 56720U 23068L   24343.54059786  .00000108  00000+0  25170-3 0  9995
2 56720  87.9049   9.8668 0000663  38.2398 321.8779 13.15546900 76198
ONEWEB-0686             
1 56721U 23068M   24343.55391473 -.00000099  00000+0 -29303-3 0  9992
2 56721  87.9077 339.5169 0001526  98.8479 261.2825 13.16594640 78602
ONEWEB-0694             
1 56722U 23068N   24343.52067294  .00000176  00000+0  42623-3 0  9995
2 56722  87.9074 339.4439 0001952 102.1970 257.9380 13.16594624 78652
ONEWEB-0696             
1 56723U 23068P   24343.49783344 -.00000070  00000+0 -22034-3 0  9992
2 56723  87.9075   9.8607 0001634  84.4443 275.6874 13.15548477 76302
ONEWEB-0703             
1 56724U 23068Q   24343.50734115  .00000009  00000+0 -89528-5 0  9991
2 56724  87.9074   9.8789 0002047  58.2996 301.8334 13.15548644 76190
ONEWEB-0721             
1 56725U 23068R   24343.53447404  .00000476  00000+0  24978-3 0  9990
2 56725  86.6756 264.5142 0009417  26.4179 333.7483 14.12143078 84171
ONEWEB-0015             
1 61594U 24188A   24343.50726098  .00003951  00000+0  48433-3 0  9993
2 61594  86.5753 149.3413 0006921  61.4703 298.7216 14.82896793 10277
ONEWEB-0687             
1 61595U 24188B   24343.51054238  .00003906  00000+0  47862-3 0  9990
2 61595  86.5771 149.3482 0006109  61.7732 298.4107 14.82909478 10278
ONEWEB-0688             
1 61596U 24188C   24343.51388278  .00003828  00000+0  46909-3 0  9999
2 61596  86.5780 149.3607 0005739  64.1939 295.9876 14.82904545 10277
ONEWEB-0689             
1 61597U 24188D   24343.51410487  .00002591  00000+0  31675-3 0  9998
2 61597  86.5690 149.3258 0003679  74.8506 285.3123 14.82885641 10272
ONEWEB-0690             
1 61598U 24188E   24343.49845047  .00003951  00000+0  48449-3 0  9998
2 61598  86.5767 149.3385 0007588  59.8627 300.3347 14.82876986 10277
ONEWEB-0691             
1 61599U 24188F   24343.50822248  .00003876  00000+0  47515-3 0  9998
2 61599  86.5802 149.3660 0006786  62.9784 297.2131 14.82890826 10276
ONEWEB-0692             
1 61600U 24188G   24343.51712863  .00003922  00000+0  48087-3 0  9990
2 61600  86.5731 149.3483 0004483  84.4107 275.7627 14.82891940 10272
ONEWEB-0693             
1 61601U 24188H   24343.51425580  .00003741  00000+0  45837-3 0  9997
2 61601  86.5695 149.3213 0004149  77.0227 283.1459 14.82907579 10275
ONEWEB-0695             
1 61602U 24188J   24343.51682643  .00003933  00000+0  48222-3 0  9997
2 61602  86.5753 149.3572 0003861  75.6526 284.5125 14.82893748 10272
ONEWEB-0697             
1 61603U 24188K   24343.51884628  .00003053  00000+0  37386-3 0  9997
2 61603  86.5704 149.3288 0004296  83.2043 276.9668 14.82868948 10276
ONEWEB-0698             
1 61604U 24188L   24343.50436694  .00000377  00000+0  43193-4 0  9993
2 61604  86.5781 149.3477 0007183  63.9587 296.2375 14.82880785 10271
ONEWEB-0699             
1 61605U 24188M   24343.58334491 -.01237924  00000+0 -56787+0 0  9995
2 61605  87.0302 150.5612 0003467  75.9503  17.8287 14.24832769  5744
ONEWEB-0700             
1 61606U 24188N   24343.58334491 -.01345059  00000+0 -64276+0 0  9997
2 61606  87.0323 150.5649 0003330  63.3469   3.3887 14.22985335  5741
ONEWEB-0701             
1 61607U 24188P   24343.58334491 -.01284875  00000+0 -58880+0 0  9990
2 61607  87.0343 150.5388 0005346  48.6104 159.9932 14.25014821  5740
ONEWEB-0702             
1 61608U 24188Q   24343.51037810  .00003926  00000+0  48106-3 0  9996
2 61608  86.5802 149.3595 0007035  62.7434 297.4505 14.82910167 10270
ONEWEB-0704             
1 61609U 24188R   24343.58334491 -.01304417  00000+0 -61872+0 0  9992
2 61609  87.0363 150.6042 0004171  96.8323 260.4895 14.23261027  5684
ONEWEB-0705             
1 61610U 24188S   24343.58334491 -.01091708  00000+0 -47293+0 0  9991
2 61610  87.0308 150.4747 0006041  81.3918 290.5188 14.27401661  5438
ONEWEB-0706             
1 61611U 24188T   24343.58334491 -.01340086  00000+0 -62438+0 0  9996
2 61611  87.0313 150.5457 0005955  57.4825 150.4044 14.24297658  5710
